{
  "type": "FeatureCollection",
  "features": [
    {
      "type": "Feature",
      "properties": {
        "norad_id": 29740,
        "name": "FENGYUN 1C DEB",
        "group": "fengyun-1c-debris",
        "lat": 64.00050870395063,
        "lon": 177.42628433947155,
        "alt_km": 2184.373251193375,
        "timestamp": "2025-12-10T04:57:29.889212+00:00",
        "meta_object_name": "FENGYUN 1C DEB",
        "meta_object_id": "1999-025AE",
        "meta_epoch": "2025-12-09T00:42:17.128224",
        "meta_mean_motion": 12.0832455,
        "meta_eccentricity": 0.09752438,
        "meta_inclination": 99.0446,
        "meta_ra_of_asc_node": 195.6445,
        "meta_arg_of_pericenter": 206.1242,
        "meta_mean_anomaly": 148.7332,
        "meta_ephemeris_type": 0,
        "meta_classification_type": "U",
        "meta_norad_cat_id": 29740,
        "meta_element_set_no": 999,
        "meta_rev_at_epoch": 82890,
        "meta_bstar": 0.00054282599,
        "meta_mean_motion_dot": 1.82e-06,
        "meta_mean_motion_ddot": 0,
        "tle_line1": "1 29740U 99025AE  25343.02936491  .00000182  00000+0  54283-3 0  9993",
        "tle_line2": "2 29740  99.0446 195.6445 0975243 206.1242 148.7332 12.08324550828902"
      },
      "geometry": {
        "type": "Point",
        "coordinates": [
          177.42628433947155,
          64.00050870395063
        ]
      }
    },
    {
      "type": "Feature",
      "properties": {
        "norad_id": 29741,
        "name": "FENGYUN 1C DEB",
        "group": "fengyun-1c-debris",
        "lat": 1.8710139703126862,
        "lon": -141.04250018024544,
        "alt_km": 1286.4131487265477,
        "timestamp": "2025-12-10T04:57:29.889223+00:00",
        "meta_object_name": "FENGYUN 1C DEB",
        "meta_object_id": "1999-025AF",
        "meta_epoch": "2025-12-09T05:29:53.280096",
        "meta_mean_motion": 12.00915533,
        "meta_eccentricity": 0.1024111,
        "meta_inclination": 99.1748,
        "meta_ra_of_asc_node": 218.5601,
        "meta_arg_of_pericenter": 70.7989,
        "meta_mean_anomaly": 37.5224,
        "meta_ephemeris_type": 0,
        "meta_classification_type": "U",
        "meta_norad_cat_id": 29741,
        "meta_element_set_no": 999,
        "meta_rev_at_epoch": 52141,
        "meta_bstar": 0.006645,
        "meta_mean_motion_dot": 2.58e-05,
        "meta_mean_motion_ddot": 0,
        "tle_line1": "1 29741U 99025AF  25343.22908889  .00002580  00000+0  66450-2 0  9998",
        "tle_line2": "2 29741  99.1748 218.5601 1024111  70.7989  37.5224 12.00915533521411"
      },
      "geometry": {
        "type": "Point",
        "coordinates": [
          -141.04250018024544,
          1.8710139703126862
        ]
      }
    },
    {
      "type": "Feature",
      "properties": {
        "norad_id": 29748,
        "name": "FENGYUN 1C DEB",
        "group": "fengyun-1c-debris",
        "lat": 38.36817657894045,
        "lon": -92.0996322341012,
        "alt_km": 1097.5121823699847,
        "timestamp": "2025-12-10T04:57:29.889234+00:00",
        "meta_object_name": "FENGYUN 1C DEB",
        "meta_object_id": "1999-025AN",
        "meta_epoch": "2025-12-08T18:28:11.177184",
        "meta_mean_motion": 11.89764026,
        "meta_eccentricity": 0.08397796,
        "meta_inclination": 99.8026,
        "meta_ra_of_asc_node": 274.6986,
        "meta_arg_of_pericenter": 16.7533,
        "meta_mean_anomaly": 345.9549,
        "meta_ephemeris_type": 0,
        "meta_classification_type": "U",
        "meta_norad_cat_id": 29748,
        "meta_element_set_no": 999,
        "meta_rev_at_epoch": 78686,
        "meta_bstar": 0.18763308,
        "meta_mean_motion_dot": 0.00036035,
        "meta_mean_motion_ddot": 0,
        "tle_line1": "1 29748U 99025AN  25342.76957381  .00036035  00000+0  18763+0 0  9997",
        "tle_line2": "2 29748  99.8026 274.6986 0839779  16.7533 345.9549 11.89764026786864"
      },
      "geometry": {
        "type": "Point",
        "coordinates": [
          -92.0996322341012,
          38.36817657894045
        ]
      }
    },
    {
      "type": "Feature",
      "properties": {
        "norad_id": 29750,
        "name": "FENGYUN 1C DEB",
        "group": "fengyun-1c-debris",
        "lat": 18.23344504032703,
        "lon": 10.484715502488655,
        "alt_km": 851.9587706600096,
        "timestamp": "2025-12-10T04:57:29.889260+00:00",
        "meta_object_name": "FENGYUN 1C DEB",
        "meta_object_id": "1999-025AQ",
        "meta_epoch": "2025-12-09T01:52:51.345120",
        "meta_mean_motion": 14.09638744,
        "meta_eccentricity": 0.00351666,
        "meta_inclination": 98.7548,
        "meta_ra_of_asc_node": 12.2975,
        "meta_arg_of_pericenter": 312.0376,
        "meta_mean_anomaly": 103.9393,
        "meta_ephemeris_type": 0,
        "meta_classification_type": "U",
        "meta_norad_cat_id": 29750,
        "meta_element_set_no": 999,
        "meta_rev_at_epoch": 97022,
        "meta_bstar": 0.00034528591,
        "meta_mean_motion_dot": 5.65e-06,
        "meta_mean_motion_ddot": 0,
        "tle_line1": "1 29750U 99025AQ  25343.07837205  .00000565  00000+0  34529-3 0  9998",
        "tle_line2": "2 29750  98.7548  12.2975 0035166 312.0376 103.9393 14.09638744970229"
      },
      "geometry": {
        "type": "Point",
        "coordinates": [
          10.484715502488655,
          18.23344504032703
        ]
      }
    },
    {
      "type": "Feature",
      "properties": {
        "norad_id": 29751,
        "name": "FENGYUN 1C DEB",
        "group": "fengyun-1c-debris",
        "lat": 26.20318829125084,
        "lon": 7.910382886450757,
        "alt_km": 843.9019813968298,
        "timestamp": "2025-12-10T04:57:29.889273+00:00",
        "meta_object_name": "FENGYUN 1C DEB",
        "meta_object_id": "1999-025AR",
        "meta_epoch": "2025-12-09T14:23:34.269216",
        "meta_mean_motion": 14.23625826,
        "meta_eccentricity": 0.0089785,
        "meta_inclination": 98.5418,
        "meta_ra_of_asc_node": 11.5627,
        "meta_arg_of_pericenter": 148.2951,
        "meta_mean_anomaly": 10.6244,
        "meta_ephemeris_type": 0,
        "meta_classification_type": "U",
        "meta_norad_cat_id": 29751,
        "meta_element_set_no": 999,
        "meta_rev_at_epoch": 98028,
        "meta_bstar": 0.00026837,
        "meta_mean_motion_dot": 5.96e-06,
        "meta_mean_motion_ddot": 0,
        "tle_line1": "1 29751U 99025AR  25343.59970219  .00000596  00000+0  26837-3 0  9996",
        "tle_line2": "2 29751  98.5418  11.5627 0089785 148.2951  10.6244 14.23625826980283"
      },
      "geometry": {
        "type": "Point",
        "coordinates": [
          7.910382886450757,
          26.20318829125084
        ]
      }
    },
    {
      "type": "Feature",
      "properties": {
        "norad_id": 29754,
        "name": "FENGYUN 1C DEB",
        "group": "fengyun-1c-debris",
        "lat": -21.819109289616232,
        "lon": -96.65043604416869,
        "alt_km": 815.1388130720152,
        "timestamp": "2025-12-10T04:57:29.889284+00:00",
        "meta_object_name": "FENGYUN 1C DEB",
        "meta_object_id": "1999-025AU",
        "meta_epoch": "2025-12-09T18:34:17.419008",
        "meta_mean_motion": 14.19131954,
        "meta_eccentricity": 0.00358,
        "meta_inclination": 98.8839,
        "meta_ra_of_asc_node": 86.506,
        "meta_arg_of_pericenter": 247.853,
        "meta_mean_anomaly": 264.6204,
        "meta_ephemeris_type": 0,
        "meta_classification_type": "U",
        "meta_norad_cat_id": 29754,
        "meta_element_set_no": 999,
        "meta_rev_at_epoch": 97312,
        "meta_bstar": 0.001632,
        "meta_mean_motion_dot": 3.392e-05,
        "meta_mean_motion_ddot": 0,
        "tle_line1": "1 29754U 99025AU  25343.77381272  .00003392  00000+0  16320-2 0  9996",
        "tle_line2": "2 29754  98.8839  86.5060 0035800 247.8530 264.6204 14.19131954973128"
      },
      "geometry": {
        "type": "Point",
        "coordinates": [
          -96.65043604416869,
          -21.819109289616232
        ]
      }
    },
    {
      "type": "Feature",
      "properties": {
        "norad_id": 29758,
        "name": "FENGYUN 1C DEB",
        "group": "fengyun-1c-debris",
        "lat": -35.87488328923853,
        "lon": 106.30318772202838,
        "alt_km": 747.0529908651624,
        "timestamp": "2025-12-10T04:57:29.889295+00:00",
        "meta_object_name": "FENGYUN 1C DEB",
        "meta_object_id": "1999-025AY",
        "meta_epoch": "2025-12-09T19:49:43.870080",
        "meta_mean_motion": 14.40911011,
        "meta_eccentricity": 0.0020783,
        "meta_inclination": 98.855,
        "meta_ra_of_asc_node": 99.436,
        "meta_arg_of_pericenter": 316.4818,
        "meta_mean_anomaly": 195.1217,
        "meta_ephemeris_type": 0,
        "meta_classification_type": "U",
        "meta_norad_cat_id": 29758,
        "meta_element_set_no": 999,
        "meta_rev_at_epoch": 97629,
        "meta_bstar": 0.003959,
        "meta_mean_motion_dot": 0.0001271,
        "meta_mean_motion_ddot": 0,
        "tle_line1": "1 29758U 99025AY  25343.82620220  .00012710  00000+0  39590-2 0  9993",
        "tle_line2": "2 29758  98.8550  99.4360 0020783 316.4818 195.1217 14.40911011976291"
      },
      "geometry": {
        "type": "Point",
        "coordinates": [
          106.30318772202838,
          -35.87488328923853
        ]
      }
    }
  ]
}